{
    "links": {
        "self": "http://www.neowsapp.com/rest/v1/neo/54054708?api_key=iIulBulltgU6a56xZRHN4H3l9WmuAYTsLGpBGhQ2"
    },
    "id": "54054708",
    "neo_reference_id": "54054708",
    "name": "(2020 SM6)",
    "designation": "2020 SM6",
    "nasa_jpl_url": "http://ssd.jpl.nasa.gov/sbdb.cgi?sstr=54054708",
    "absolute_magnitude_h": 22.884,
    "estimated_diameter": {
        "kilometers": {
            "estimated_diameter_min": 0.0704295602,
            "estimated_diameter_max": 0.1574852843
        },
        "meters": {
            "estimated_diameter_min": 70.4295602282,
            "estimated_diameter_max": 157.4852842957
        },
        "miles": {
            "estimated_diameter_min": 0.0437628863,
            "estimated_diameter_max": 0.0978567886
        },
        "feet": {
            "estimated_diameter_min": 231.0681183791,
            "estimated_diameter_max": 516.6840201286
        }
    },
    "is_potentially_hazardous_asteroid": false,
    "close_approach_data": [
        {
            "close_approach_date": "2016-09-20",
            "close_approach_date_full": "2016-Sep-20 14:32",
            "epoch_date_close_approach": 1474381920000,
            "relative_velocity": {
                "kilometers_per_second": "20.7828820871",
                "kilometers_per_hour": "74818.3755135748",
                "miles_per_hour": "46489.2289406432"
            },
            "miss_distance": {
                "astronomical": "0.4281312818",
                "lunar": "166.5430686202",
                "kilometers": "64047527.837649766",
                "miles": "39797288.3735321308"
            },
            "orbiting_body": "Earth"
        },
        {
            "close_approach_date": "2018-09-29",
            "close_approach_date_full": "2018-Sep-29 11:13",
            "epoch_date_close_approach": 1538219580000,
            "relative_velocity": {
                "kilometers_per_second": "16.7775855225",
                "kilometers_per_hour": "60399.3078810886",
                "miles_per_hour": "37529.7810553353"
            },
            "miss_distance": {
                "astronomical": "0.2488778293",
                "lunar": "96.8134755977",
                "kilometers": "37231593.153503591",
                "miles": "23134639.2181119158"
            },
            "orbiting_body": "Earth"
        },
        {
            "close_approach_date": "2020-10-06",
            "close_approach_date_full": "2020-Oct-06 22:53",
            "epoch_date_close_approach": 1602024780000,
            "relative_velocity": {
                "kilometers_per_second": "13.6619797242",
                "kilometers_per_hour": "49183.1270070253",
                "miles_per_hour": "30560.4824450041"
            },
            "miss_distance": {
                "astronomical": "0.0969577077",
                "lunar": "37.7165482953",
                "kilometers": "14504666.552002599",
                "miles": "9012781.8671659062"
            },
            "orbiting_body": "Earth"
        },
        {
            "close_approach_date": "2022-10-14",
            "close_approach_date_full": "2022-Oct-14 22:17",
            "epoch_date_close_approach": 1665785820000,
            "relative_velocity": {
                "kilometers_per_second": "12.0398865818",
                "kilometers_per_hour": "43343.5916945876",
                "miles_per_hour": "26932.0222948953"
            },
            "miss_distance": {
                "astronomical": "0.1438587984",
                "lunar": "55.9610725776",
                "kilometers": "21520969.821399408",
                "miles": "13372510.5554635104"
            },
            "orbiting_body": "Earth"
        },
        {
            "close_approach_date": "2024-10-22",
            "close_approach_date_full": "2024-Oct-22 02:45",
            "epoch_date_close_approach": 1729565100000,
            "relative_velocity": {
                "kilometers_per_second": "12.3642788201",
                "kilometers_per_hour": "44511.4037523931",
                "miles_per_hour": "27657.6552927023"
            },
            "miss_distance": {
                "astronomical": "0.3132706122",
                "lunar": "121.8622681458",
                "kilometers": "46864616.318716014",
                "miles": "29120322.2531644332"
            },
            "orbiting_body": "Earth"
        }
    ],
    "orbital_data": {
        "orbit_id": "6",
        "orbit_determination_date": "2020-10-16 08:04:43",
        "first_observation_date": "2020-09-26",
        "last_observation_date": "2020-10-14",
        "data_arc_in_days": 18,
        "observations_used": 32,
        "orbit_uncertainty": "8",
        "minimum_orbit_intersection": ".079595",
        "jupiter_tisserand_invariant": "4.209",
        "epoch_osculation": "2459122.5",
        "eccentricity": ".3640256213864954",
        "semi_major_axis": "1.602256070148546",
        "inclination": "21.57931014788588",
        "ascending_node_longitude": "191.9207337048362",
        "orbital_period": "740.7920539062756",
        "perihelion_distance": "1.018993808592437",
        "perihelion_argument": "220.1243453415413",
        "aphelion_distance": "2.185518331704654",
        "perihelion_time": "2459161.492103760027",
        "mean_anomaly": "341.0511502120058",
        "mean_motion": ".4859663357641076",
        "equinox": "J2000",
        "orbit_class": {
            "orbit_class_type": "AMO",
            "orbit_class_description": "Near-Earth asteroid orbits similar to that of 1221 Amor",
            "orbit_class_range": "1.017 AU < q (perihelion) < 1.3 AU"
        }
    },
    "is_sentry_object": false
}